IRIDIUM 26              
1 24903U 97043A   25357.48974662  .00000318  00000+0  99879-4 0  9996
2 24903  86.3950  31.0438 0002244  98.1208 262.0244 14.37335241483930
IRIDIUM 22              
1 24907U 97043E   25357.50743213  .00000327  00000+0  10566-3 0  9994
2 24907  86.3953  34.7389 0002331  93.8398 266.3066 14.36128716483947
DUMMY MASS 1            
1 24925U 97048A   25357.16769191  .00000404  00000+0  41726-4 0  9993
2 24925  86.3334  47.8804 0006398 175.0882 185.0407 14.87191427533212
DUMMY MASS 2            
1 24926U 97048B   25357.56519367  .00000385  00000+0  39872-4 0  9993
2 24926  86.3334  49.3392 0006684 188.0535 172.0584 14.86942044533040
IRIDIUM 29              
1 24944U 97051A   25357.11324928  .00000361  00000+0  11588-3 0  9992
2 24944  86.3946  64.5879 0002246  90.7515 269.3939 14.36670466480399
IRIDIUM 33              
1 24946U 97051C   25357.65388793  .00000312  00000+0  10256-3 0  9990
2 24946  86.3859  63.6401 0008328 164.7579 195.3870 14.35044477479918
IRIDIUM 28              
1 24948U 97051E   25357.17658351  .00000375  00000+0  11840-3 0  9998
2 24948  86.3950  61.9688 0002280 108.8770 251.2675 14.37570679480998
IRIDIUM 36              
1 24967U 97056C   25357.52804609  .00000420  00000+0  13299-3 0  9993
2 24967  86.3963  93.4489 0002327 100.0188 260.1272 14.37793167479428
